JILIN GAOFEN OBJECT C
1 68693U 26080C   26109.05230122  .00000284  00000+0  21876-4 0  9992
2 68693  97.6618 184.6919 0014083 261.8747  98.0884 15.09281899   740
JILIN GAOFEN OBJECT D
1 68694U 26080D   26105.07430977  .00001013  00000+0  67430-4 0  9998
2 68694  97.6682 180.7187 0014244 278.7346  81.2269 15.09349528   124
JILIN GAOFEN OBJECT E
1 68695U 26080E   26109.25083792  .00000860  00000+0  57833-4 0  9997
2 68695  97.6658 184.8929 0014595 262.7212  97.2358 15.09390850   738
JILIN GAOFEN OBJECT F
1 68696U 26080F   26105.07427363  .00001014  00000+0  67432-4 0  9998
2 68696  97.6631 180.7184 0013604 281.1130  78.8569 15.09416186   103
JILIN GAOFEN OBJECT G
1 68697U 26080G   26105.07421782  .00002560  00000+0  16347-3 0  9993
2 68697  97.6672 180.7171 0014131 282.1232  77.8414 15.09509936   109
JILIN GAOFEN OBJECT H
1 68698U 26080H   26105.07419377  .00001014  00000+0  67136-4 0  9997
2 68698  97.6665 180.7184 0013930 282.9895  76.9778 15.09549566   101
2026-083A
1 68753U 26083A   26109.85540868  .00004552  00000+0  19178-3 0  9994
2 68753  98.2653 255.4189 0065076  69.7497 291.0717 15.22010272   452
2026-083B
1 68754U 26083B   26109.95089542  .00002033  00000+0  14234-3 0  9993
2 68754  98.2513 255.4034 0008760 251.6822 108.3451 15.06513016   459
2026-083D
1 68756U 26083D   26109.90794523  .00007042  00000+0  23399-3 0  9999
2 68756  96.9050 250.8958 0013430 261.8525  98.1194 15.31391908   440
2026-083E
1 68757U 26083E   26107.15977192  .00001477  00000+0  63261-4 0  9999
2 68757  98.2473 252.4151 0061702  80.1499 280.6695 15.23009713    35
2026-083F
1 68758U 26083F   26109.95093948  .00001545  00000+0  10795-3 0  9997
2 68758  96.9506 249.9501 0010205 247.2587 112.7564 15.06565892   434
2026-083G
1 68759U 26083G   26109.88444749  .00001535  00000+0  10711-3 0  9996
2 68759  96.9511 249.8929 0010384 247.5730 112.4400 15.06607327   419
DAQI-2
1 68760U 26084A   26109.13551653  .00000030  00000+0  15616-4 0  9999
2 68760  98.2883 183.5451 0004852 219.7145 140.3701 14.61978622   295
2026-083H
1 68762U 26083H   26109.88415275  .00001568  00000+0  10886-3 0  9991
2 68762  96.9505 249.8900 0011118 247.8348 112.1701 15.06774898   429
